[{"OBJECT_NAME":"UNKNOWN","OBJECT_ID":"","EPOCH":"2026-04-25T11:03:10.336320","MEAN_MOTION":13.22843096,"ECCENTRICITY":0.0838354,"INCLINATION":65.8172,"RA_OF_ASC_NODE":184.0836,"ARG_OF_PERICENTER":329.4859,"MEAN_ANOMALY":25.9819,"EPHEMERIS_TYPE":0,"CLASSIFICATION_TYPE":"U","NORAD_CAT_ID":81329,"ELEMENT_SET_NO":999,"REV_AT_EPOCH":59576,"BSTAR":0.00039494,"MEAN_MOTION_DOT":1.077e-5,"MEAN_MOTION_DDOT":0},{"OBJECT_NAME":"UNKNOWN","OBJECT_ID":"","EPOCH":"2026-04-25T18:13:26.840352","MEAN_MOTION":15.0574928,"ECCENTRICITY":0.0010653,"INCLINATION":85.8655,"RA_OF_ASC_NODE":127.6309,"ARG_OF_PERICENTER":119.1265,"MEAN_ANOMALY":241.1037,"EPHEMERIS_TYPE":0,"CLASSIFICATION_TYPE":"U","NORAD_CAT_ID":81343,"ELEMENT_SET_NO":999,"REV_AT_EPOCH":47447,"BSTAR":0.00034393,"MEAN_MOTION_DOT":5.015e-5,"MEAN_MOTION_DDOT":0},{"OBJECT_NAME":"UNKNOWN","OBJECT_ID":"","EPOCH":"2026-04-25T22:20:04.089696","MEAN_MOTION":13.79061864,"ECCENTRICITY":0.0119765,"INCLINATION":66.7963,"RA_OF_ASC_NODE":90.744,"ARG_OF_PERICENTER":237.0648,"MEAN_ANOMALY":121.8861,"EPHEMERIS_TYPE":0,"CLASSIFICATION_TYPE":"U","NORAD_CAT_ID":81359,"ELEMENT_SET_NO":999,"REV_AT_EPOCH":62398,"BSTAR":0.00086196,"MEAN_MOTION_DOT":8.56e-6,"MEAN_MOTION_DDOT":0},{"OBJECT_NAME":"UNKNOWN","OBJECT_ID":"","EPOCH":"2026-04-26T06:24:22.802112","MEAN_MOTION":13.45471115,"ECCENTRICITY":0.0716072,"INCLINATION":65.8767,"RA_OF_ASC_NODE":113.561,"ARG_OF_PERICENTER":16.136,"MEAN_ANOMALY":346.1254,"EPHEMERIS_TYPE":0,"CLASSIFICATION_TYPE":"U","NORAD_CAT_ID":81366,"ELEMENT_SET_NO":999,"REV_AT_EPOCH":8405,"BSTAR":0.00065727,"MEAN_MOTION_DOT":1.843e-5,"MEAN_MOTION_DDOT":0},{"OBJECT_NAME":"UNKNOWN","OBJECT_ID":"","EPOCH":"2026-04-25T13:53:10.806720","MEAN_MOTION":14.71456363,"ECCENTRICITY":0.00676,"INCLINATION":98.8148,"RA_OF_ASC_NODE":227.8622,"ARG_OF_PERICENTER":307.6739,"MEAN_ANOMALY":51.8346,"EPHEMERIS_TYPE":0,"CLASSIFICATION_TYPE":"U","NORAD_CAT_ID":81371,"ELEMENT_SET_NO":999,"REV_AT_EPOCH":66151,"BSTAR":0.00032725,"MEAN_MOTION_DOT":2.039e-5,"MEAN_MOTION_DDOT":0},{"OBJECT_NAME":"UNKNOWN","OBJECT_ID":"","EPOCH":"2026-04-26T02:43:05.093760","MEAN_MOTION":14.37788319,"ECCENTRICITY":0.0090108,"INCLINATION":71.0474,"RA_OF_ASC_NODE":64.6198,"ARG_OF_PERICENTER":232.6411,"MEAN_ANOMALY":126.6493,"EPHEMERIS_TYPE":0,"CLASSIFICATION_TYPE":"U","NORAD_CAT_ID":81386,"ELEMENT_SET_NO":999,"REV_AT_EPOCH":64354,"BSTAR":0.0016075,"MEAN_MOTION_DOT":5.029e-5,"MEAN_MOTION_DDOT":0},{"OBJECT_NAME":"UNKNOWN","OBJECT_ID":"","EPOCH":"2026-04-25T00:02:01.008384","MEAN_MOTION":12.35593262,"ECCENTRICITY":0.0171228,"INCLINATION":103.1043,"RA_OF_ASC_NODE":17.5785,"ARG_OF_PERICENTER":273.305,"MEAN_ANOMALY":84.8432,"EPHEMERIS_TYPE":0,"CLASSIFICATION_TYPE":"U","NORAD_CAT_ID":81390,"ELEMENT_SET_NO":999,"REV_AT_EPOCH":51655,"BSTAR":-0.0027928,"MEAN_MOTION_DOT":-4.22e-6,"MEAN_MOTION_DDOT":0},{"OBJECT_NAME":"UNKNOWN","OBJECT_ID":"","EPOCH":"2026-04-26T06:08:36.919104","MEAN_MOTION":13.8258155,"ECCENTRICITY":0.0042152,"INCLINATION":100.4042,"RA_OF_ASC_NODE":123.233,"ARG_OF_PERICENTER":55.0103,"MEAN_ANOMALY":319.3643,"EPHEMERIS_TYPE":0,"CLASSIFICATION_TYPE":"U","NORAD_CAT_ID":81392,"ELEMENT_SET_NO":999,"REV_AT_EPOCH":62076,"BSTAR":0.0027615,"MEAN_MOTION_DOT":2.965e-5,"MEAN_MOTION_DDOT":0},{"OBJECT_NAME":"UNKNOWN","OBJECT_ID":"","EPOCH":"2026-04-18T21:34:56.185824","MEAN_MOTION":13.8926862,"ECCENTRICITY":0.0158907,"INCLINATION":99.4537,"RA_OF_ASC_NODE":164.0662,"ARG_OF_PERICENTER":243.0027,"MEAN_ANOMALY":115.483,"EPHEMERIS_TYPE":0,"CLASSIFICATION_TYPE":"U","NORAD_CAT_ID":81405,"ELEMENT_SET_NO":999,"REV_AT_EPOCH":57945,"BSTAR":0.00075646,"MEAN_MOTION_DOT":9.72e-6,"MEAN_MOTION_DDOT":0},{"OBJECT_NAME":"UNKNOWN","OBJECT_ID":"","EPOCH":"2026-04-23T12:44:36.521664","MEAN_MOTION":13.12649658,"ECCENTRICITY":0.0867559,"INCLINATION":65.8126,"RA_OF_ASC_NODE":218.0116,"ARG_OF_PERICENTER":261.6842,"MEAN_ANOMALY":88.5033,"EPHEMERIS_TYPE":0,"CLASSIFICATION_TYPE":"U","NORAD_CAT_ID":81406,"ELEMENT_SET_NO":999,"REV_AT_EPOCH":55097,"BSTAR":0.00036449,"MEAN_MOTION_DOT":8.62e-6,"MEAN_MOTION_DDOT":0},{"OBJECT_NAME":"UNKNOWN","OBJECT_ID":"","EPOCH":"2026-04-26T02:42:18.795456","MEAN_MOTION":14.07164702,"ECCENTRICITY":0.0085138,"INCLINATION":98.7353,"RA_OF_ASC_NODE":358.8638,"ARG_OF_PERICENTER":20.3076,"MEAN_ANOMALY":340.1446,"EPHEMERIS_TYPE":0,"CLASSIFICATION_TYPE":"U","NORAD_CAT_ID":81427,"ELEMENT_SET_NO":999,"REV_AT_EPOCH":57066,"BSTAR":0.0004361,"MEAN_MOTION_DOT":7.12e-6,"MEAN_MOTION_DDOT":0},{"OBJECT_NAME":"UNKNOWN","OBJECT_ID":"","EPOCH":"2026-04-24T15:33:49.316544","MEAN_MOTION":13.5544519,"ECCENTRICITY":0.0051236,"INCLINATION":100.3353,"RA_OF_ASC_NODE":357.2537,"ARG_OF_PERICENTER":101.905,"MEAN_ANOMALY":258.7836,"EPHEMERIS_TYPE":0,"CLASSIFICATION_TYPE":"U","NORAD_CAT_ID":81438,"ELEMENT_SET_NO":999,"REV_AT_EPOCH":60994,"BSTAR":0.0034112,"MEAN_MOTION_DOT":2.338e-5,"MEAN_MOTION_DDOT":0},{"OBJECT_NAME":"UNKNOWN","OBJECT_ID":"","EPOCH":"2026-04-26T01:36:50.340384","MEAN_MOTION":12.62693095,"ECCENTRICITY":0.059529,"INCLINATION":67.1602,"RA_OF_ASC_NODE":242.0637,"ARG_OF_PERICENTER":120.2994,"MEAN_ANOMALY":245.8297,"EPHEMERIS_TYPE":0,"CLASSIFICATION_TYPE":"U","NORAD_CAT_ID":81439,"ELEMENT_SET_NO":999,"REV_AT_EPOCH":27885,"BSTAR":0.00010617,"MEAN_MOTION_DOT":-1.3e-7,"MEAN_MOTION_DDOT":0},{"OBJECT_NAME":"UNKNOWN","OBJECT_ID":"","EPOCH":"2026-04-25T23:09:20.060064","MEAN_MOTION":15.36656555,"ECCENTRICITY":0.0012288,"INCLINATION":66.7842,"RA_OF_ASC_NODE":311.6701,"ARG_OF_PERICENTER":310.0999,"MEAN_ANOMALY":49.9076,"EPHEMERIS_TYPE":0,"CLASSIFICATION_TYPE":"U","NORAD_CAT_ID":81449,"ELEMENT_SET_NO":999,"REV_AT_EPOCH":65388,"BSTAR":0.00747,"MEAN_MOTION_DOT":0.00279082,"MEAN_MOTION_DDOT":0},{"OBJECT_NAME":"UNKNOWN","OBJECT_ID":"","EPOCH":"2026-04-25T12:39:43.535808","MEAN_MOTION":14.29446183,"ECCENTRICITY":0.0144302,"INCLINATION":98.9507,"RA_OF_ASC_NODE":35.9781,"ARG_OF_PERICENTER":330.6833,"MEAN_ANOMALY":208.0043,"EPHEMERIS_TYPE":0,"CLASSIFICATION_TYPE":"U","NORAD_CAT_ID":81478,"ELEMENT_SET_NO":999,"REV_AT_EPOCH":64204,"BSTAR":0.001402,"MEAN_MOTION_DOT":3.956e-5,"MEAN_MOTION_DDOT":0},{"OBJECT_NAME":"UNKNOWN","OBJECT_ID":"","EPOCH":"2026-04-26T10:48:08.486208","MEAN_MOTION":13.56588721,"ECCENTRICITY":0.0045096,"INCLINATION":99.9853,"RA_OF_ASC_NODE":356.0253,"ARG_OF_PERICENTER":26.4127,"MEAN_ANOMALY":150.6636,"EPHEMERIS_TYPE":0,"CLASSIFICATION_TYPE":"U","NORAD_CAT_ID":81488,"ELEMENT_SET_NO":999,"REV_AT_EPOCH":61489,"BSTAR":0.00067231,"MEAN_MOTION_DOT":4.32e-6,"MEAN_MOTION_DDOT":0},{"OBJECT_NAME":"UNKNOWN","OBJECT_ID":"","EPOCH":"2026-04-24T12:45:51.248160","MEAN_MOTION":13.85194894,"ECCENTRICITY":0.0029466,"INCLINATION":100.2988,"RA_OF_ASC_NODE":26.9555,"ARG_OF_PERICENTER":33.8322,"MEAN_ANOMALY":145.7993,"EPHEMERIS_TYPE":0,"CLASSIFICATION_TYPE":"U","NORAD_CAT_ID":81497,"ELEMENT_SET_NO":999,"REV_AT_EPOCH":23467,"BSTAR":0.0025239,"MEAN_MOTION_DOT":2.822e-5,"MEAN_MOTION_DDOT":0}]
