UNKNOWN                 
1 81329U          26115.46053630  .00001077  00000+0  39494-3 0  9991
2 81329  65.8172 184.0836 0838354 329.4859  25.9819 13.22843096595769
UNKNOWN                 
1 81343U          26115.75933843  .00005015  00000+0  34393-3 0  9991
2 81343  85.8655 127.6309 0010653 119.1265 241.1037 15.05749280474471
UNKNOWN                 
1 81359U          26115.93060289  .00000856  00000+0  86196-3 0  9999
2 81359  66.7963  90.7440 0119765 237.0648 121.8861 13.79061864623988
UNKNOWN                 
1 81366U          26116.26693058  .00001843  00000+0  65727-3 0  9994
2 81366  65.8767 113.5610 0716072  16.1360 346.1254 13.45471115 84056
UNKNOWN                 
1 81371U          26115.57859730  .00002039  00000+0  32725-3 0  9994
2 81371  98.8148 227.8622 0067600 307.6739  51.8346 14.71456363661519
UNKNOWN                 
1 81386U          26116.11325340  .00005029  00000+0  16075-2 0  9997
2 81386  71.0474  64.6198 0090108 232.6411 126.6493 14.37788319643546
UNKNOWN                 
1 81390U          26115.00140056 -.00000422  00000+0 -27928-2 0  9991
2 81390 103.1043  17.5785 0171228 273.3050  84.8432 12.35593262516558
UNKNOWN                 
1 81392U          26116.25598286  .00002965  00000+0  27615-2 0  9998
2 81392 100.4042 123.2330 0042152  55.0103 319.3643 13.82581550620766
UNKNOWN                 
1 81405U          26108.89926141  .00000972  00000+0  75646-3 0  9993
2 81405  99.4537 164.0662 0158907 243.0027 115.4830 13.89268620579457
UNKNOWN                 
1 81406U          26113.53097826  .00000862  00000+0  36449-3 0  9996
2 81406  65.8126 218.0116 0867559 261.6842  88.5033 13.12649658550975
UNKNOWN                 
1 81427U          26116.11271754  .00000712  00000+0  43610-3 0  9992
2 81427  98.7353 358.8638 0085138  20.3076 340.1446 14.07164702570661
UNKNOWN                 
1 81438U          26114.64848746  .00002338  00000+0  34112-2 0  9993
2 81438 100.3353 357.2537 0051236 101.9050 258.7836 13.55445190609940
UNKNOWN                 
1 81439U          26116.06724931 -.00000013  00000+0  10617-3 0  9995
2 81439  67.1602 242.0637 0595290 120.2994 245.8297 12.62693095278850
UNKNOWN                 
1 81449U          26115.96481551  .00279082  00000+0  74700-2 0  9997
2 81449  66.7842 311.6701 0012288 310.0999  49.9076 15.36656555653884
UNKNOWN                 
1 81478U          26115.52758722  .00003956  00000+0  14020-2 0  9992
2 81478  98.9507  35.9781 0144302 330.6833 208.0043 14.29446183642046
UNKNOWN                 
1 81488U          26116.45009822  .00000432  00000+0  67231-3 0  9995
2 81488  99.9853 356.0253 0045096  26.4127 150.6636 13.56588721614895
UNKNOWN                 
1 81497U          26114.53184315  .00002822  00000+0  25239-2 0  9999
2 81497 100.2988  26.9555 0029466  33.8322 145.7993 13.85194894234671
